<?xml version="1.0" encoding="UTF-8" standalone="no" ?>
<gpx xmlns="http://www.topografix.com/GPX/1/1" creator="Planinarenje.hr" version="1.1" xmlns:xsi="http://www.w3.org/2001/XMLSchema-instance" xsi:schemaLocation="http://www.topografix.com/GPX/1/1 http://www.topografix.com/GPX/1/1/gpx.xsd">

 <metadata>
 <time>2026-06-16T00:00:00Z</time>
 </metadata>

 <wpt lat="44.5793813467026" lon="15.0960946083069">
 <ele>1251</ele>
 <name>Bačić Kuk 1304 m</name>
 </wpt>

 <wpt lat="44.5765111315995" lon="15.106185330078">
 <ele>891</ele>
 <name>Parkiralište</name>
 </wpt>

 <trk>
 <name>Bačić kuk-Bačić kuk</name>
 <trkseg>
 <trkpt lat="44.5764009933919" lon="15.1061679795384">
 <ele>874.46</ele>
 </trkpt>
 <trkpt lat="44.5763470139354" lon="15.1061659678817">
 <ele>872.05</ele>
 </trkpt>
 <trkpt lat="44.5763320103288" lon="15.1061679795384">
 <ele>872.53</ele>
 </trkpt>
 <trkpt lat="44.576255986467" lon="15.10622497648">
 <ele>873.5</ele>
 </trkpt>
 <trkpt lat="44.5762409828603" lon="15.1062350347638">
 <ele>873.5</ele>
 </trkpt>
 <trkpt lat="44.5762139931321" lon="15.1062480267137">
 <ele>873.5</ele>
 </trkpt>
 <trkpt lat="44.5761109795421" lon="15.1063350308686">
 <ele>873.5</ele>
 </trkpt>
 <trkpt lat="44.5760770328343" lon="15.1063579972833">
 <ele>873.98</ele>
 </trkpt>
 <trkpt lat="44.5760229695588" lon="15.1064220350236">
 <ele>873.5</ele>
 </trkpt>
 <trkpt lat="44.5760040264577" lon="15.1064279861748">
 <ele>873.98</ele>
 </trkpt>
 <trkpt lat="44.5759849995375" lon="15.1064299978316">
 <ele>875.9</ele>
 </trkpt>
 <trkpt lat="44.5759580098093" lon="15.1064279861748">
 <ele>877.34</ele>
 </trkpt>
 <trkpt lat="44.575877962634" lon="15.1063790358603">
 <ele>879.74</ele>
 </trkpt>
 <trkpt lat="44.5758819859475" lon="15.1063529681414">
 <ele>880.71</ele>
 </trkpt>
 <trkpt lat="44.5758740231395" lon="15.1063399761915">
 <ele>880.22</ele>
 </trkpt>
 <trkpt lat="44.5758480392396" lon="15.1062930375338">
 <ele>883.59</ele>
 </trkpt>
 <trkpt lat="44.5758399926126" lon="15.1062740106136">
 <ele>885.99</ele>
 </trkpt>
 <trkpt lat="44.5758290123194" lon="15.1062350347638">
 <ele>888.4</ele>
 </trkpt>
 <trkpt lat="44.5757900364697" lon="15.1061440072954">
 <ele>890.8</ele>
 </trkpt>
 <trkpt lat="44.5757140126079" lon="15.1060590147972">
 <ele>892.24</ele>
 </trkpt>
 <trkpt lat="44.575672019273" lon="15.1059900317341">
 <ele>895.12</ele>
 </trkpt>
 <trkpt lat="44.575618961826" lon="15.1059750281274">
 <ele>897.05</ele>
 </trkpt>
 <trkpt lat="44.5755809918046" lon="15.1059939712286">
 <ele>899.93</ele>
 </trkpt>
 <trkpt lat="44.5756069757044" lon="15.1057700067759">
 <ele>900.89</ele>
 </trkpt>
 <trkpt lat="44.5756150223315" lon="15.105624999851">
 <ele>901.85</ele>
 </trkpt>
 <trkpt lat="44.5755690056831" lon="15.1055619679391">
 <ele>901.37</ele>
 </trkpt>
 <trkpt lat="44.5755649823695" lon="15.1055580284446">
 <ele>900.89</ele>
 </trkpt>
 <trkpt lat="44.5755310356617" lon="15.1055990159512">
 <ele>902.33</ele>
 </trkpt>
 <trkpt lat="44.5754740387201" lon="15.1057020295411">
 <ele>904.74</ele>
 </trkpt>
 <trkpt lat="44.57539700903" lon="15.1058239862323">
 <ele>906.18</ele>
 </trkpt>
 <trkpt lat="44.5753710251302" lon="15.1059010159224">
 <ele>907.14</ele>
 </trkpt>
 <trkpt lat="44.5753629785031" lon="15.1059839967638">
 <ele>908.1</ele>
 </trkpt>
 <trkpt lat="44.5753359887749" lon="15.1060300134122">
 <ele>909.54</ele>
 </trkpt>
 <trkpt lat="44.57529399544" lon="15.106003023684">
 <ele>911.47</ele>
 </trkpt>
 <trkpt lat="44.5752639882267" lon="15.1059099845588">
 <ele>913.87</ele>
 </trkpt>
 <trkpt lat="44.5752329751849" lon="15.105862962082">
 <ele>916.75</ele>
 </trkpt>
 <trkpt lat="44.5752219948918" lon="15.1058330386877">
 <ele>918.2</ele>
 </trkpt>
 <trkpt lat="44.5751840248704" lon="15.1057619601488">
 <ele>921.56</ele>
 </trkpt>
 <trkpt lat="44.5751720387489" lon="15.1057180389762">
 <ele>922.04</ele>
 </trkpt>
 <trkpt lat="44.5751720387489" lon="15.1057000178844">
 <ele>923.48</ele>
 </trkpt>
 <trkpt lat="44.5751800015569" lon="15.1056840084493">
 <ele>924.45</ele>
 </trkpt>
 <trkpt lat="44.5751950051636" lon="15.1055410131812">
 <ele>926.37</ele>
 </trkpt>
 <trkpt lat="44.5752639882267" lon="15.1053570304066">
 <ele>928.29</ele>
 </trkpt>
 <trkpt lat="44.57529399544" lon="15.1052080001682">
 <ele>930.69</ele>
 </trkpt>
 <trkpt lat="44.5752830151469" lon="15.1051670126617">
 <ele>932.14</ele>
 </trkpt>
 <trkpt lat="44.5752639882267" lon="15.1051140390337">
 <ele>932.62</ele>
 </trkpt>
 <trkpt lat="44.5752219948918" lon="15.1050189882517">
 <ele>932.14</ele>
 </trkpt>
 <trkpt lat="44.5751990284771" lon="15.1049520168453">
 <ele>932.14</ele>
 </trkpt>
 <trkpt lat="44.5751990284771" lon="15.1048660185188">
 <ele>932.14</ele>
 </trkpt>
 <trkpt lat="44.5752069912851" lon="15.1048139669001">
 <ele>932.14</ele>
 </trkpt>
 <trkpt lat="44.5751990284771" lon="15.1047540362924">
 <ele>931.65</ele>
 </trkpt>
 <trkpt lat="44.5751990284771" lon="15.1046859752387">
 <ele>931.17</ele>
 </trkpt>
 <trkpt lat="44.5751950051636" lon="15.1046449877322">
 <ele>930.69</ele>
 </trkpt>
 <trkpt lat="44.57519098185" lon="15.1046200096607">
 <ele>930.21</ele>
 </trkpt>
 <trkpt lat="44.5751990284771" lon="15.1045770104975">
 <ele>929.73</ele>
 </trkpt>
 <trkpt lat="44.5751990284771" lon="15.1045119669288">
 <ele>928.77</ele>
 </trkpt>
 <trkpt lat="44.5752329751849" lon="15.1044650282711">
 <ele>929.73</ele>
 </trkpt>
 <trkpt lat="44.5752260182053" lon="15.1043790299445">
 <ele>929.73</ele>
 </trkpt>
 <trkpt lat="44.5752369984984" lon="15.1043269783258">
 <ele>930.21</ele>
 </trkpt>
 <trkpt lat="44.575241021812" lon="15.1042500324547">
 <ele>930.21</ele>
 </trkpt>
 <trkpt lat="44.575241021812" lon="15.1042170077562">
 <ele>928.77</ele>
 </trkpt>
 <trkpt lat="44.5752329751849" lon="15.1041300036013">
 <ele>929.73</ele>
 </trkpt>
 <trkpt lat="44.57524898462" lon="15.1040450111032">
 <ele>929.25</ele>
 </trkpt>
 <trkpt lat="44.5752560254186" lon="15.1039900258183">
 <ele>929.25</ele>
 </trkpt>
 <trkpt lat="44.5752909779549" lon="15.1039000041783">
 <ele>929.73</ele>
 </trkpt>
 <trkpt lat="44.5752980187535" lon="15.1038170233369">
 <ele>929.25</ele>
 </trkpt>
 <trkpt lat="44.5753140281886" lon="15.1037430111319">
 <ele>928.77</ele>
 </trkpt>
 <trkpt lat="44.57529399544" lon="15.1036730222404">
 <ele>928.29</ele>
 </trkpt>
 <trkpt lat="44.5752599649131" lon="15.1036209706217">
 <ele>926.85</ele>
 </trkpt>
 <trkpt lat="44.5752300415188" lon="15.1035949867219">
 <ele>925.41</ele>
 </trkpt>
 <trkpt lat="44.5751649979502" lon="15.1035320386291">
 <ele>924.93</ele>
 </trkpt>
 <trkpt lat="44.5751189813018" lon="15.1034840103239">
 <ele>923</ele>
 </trkpt>
 <trkpt lat="44.5750850345939" lon="15.1034750416875">
 <ele>922.04</ele>
 </trkpt>
 <trkpt lat="44.5750469807535" lon="15.1034389995039">
 <ele>919.64</ele>
 </trkpt>
 <trkpt lat="44.5750159677118" lon="15.1034059748054">
 <ele>918.68</ele>
 </trkpt>
 <trkpt lat="44.5749779976904" lon="15.1033530011773">
 <ele>917.72</ele>
 </trkpt>
 <trkpt lat="44.5749439671636" lon="15.1033160369843">
 <ele>916.75</ele>
 </trkpt>
 <trkpt lat="44.5749169774354" lon="15.1032810006291">
 <ele>913.87</ele>
 </trkpt>
 <trkpt lat="44.5749169774354" lon="15.1032240036875">
 <ele>913.87</ele>
 </trkpt>
 <trkpt lat="44.5748980343342" lon="15.1031309645623">
 <ele>913.87</ele>
 </trkpt>
 <trkpt lat="44.5748830307275" lon="15.1030530128628">
 <ele>914.35</ele>
 </trkpt>
 <trkpt lat="44.5748670212924" lon="15.1030209939927">
 <ele>911.95</ele>
 </trkpt>
 <trkpt lat="44.5748599804938" lon="15.1029889751226">
 <ele>912.43</ele>
 </trkpt>
 <trkpt lat="44.5748179871589" lon="15.1028719637543">
 <ele>911.95</ele>
 </trkpt>
 <trkpt lat="44.574775993824" lon="15.1027640048414">
 <ele>910.99</ele>
 </trkpt>
 <trkpt lat="44.5747640077025" lon="15.1026550401002">
 <ele>911.47</ele>
 </trkpt>
 <trkpt lat="44.5747640077025" lon="15.1025650184602">
 <ele>910.03</ele>
 </trkpt>
 <trkpt lat="44.5747640077025" lon="15.1024780143052">
 <ele>910.99</ele>
 </trkpt>
 <trkpt lat="44.574768031016" lon="15.1024279743433">
 <ele>912.43</ele>
 </trkpt>
 <trkpt lat="44.5747830346227" lon="15.1023530401289">
 <ele>912.43</ele>
 </trkpt>
 <trkpt lat="44.5747800171375" lon="15.1022569835186">
 <ele>911.95</ele>
 </trkpt>
 <trkpt lat="44.5747569669038" lon="15.1021660398692">
 <ele>913.87</ele>
 </trkpt>
 <trkpt lat="44.5747719705105" lon="15.102102002129">
 <ele>913.87</ele>
 </trkpt>
 <trkpt lat="44.5747869741172" lon="15.1020450051874">
 <ele>915.31</ele>
 </trkpt>
 <trkpt lat="44.5747950207442" lon="15.1020170096308">
 <ele>914.83</ele>
 </trkpt>
 <trkpt lat="44.5748100243509" lon="15.1019200310111">
 <ele>916.27</ele>
 </trkpt>
 <trkpt lat="44.5748100243509" lon="15.1018999982625">
 <ele>916.27</ele>
 </trkpt>
 <trkpt lat="44.5747830346227" lon="15.1017900276929">
 <ele>916.27</ele>
 </trkpt>
 <trkpt lat="44.5747569669038" lon="15.1017010118812">
 <ele>916.75</ele>
 </trkpt>
 <trkpt lat="44.574768031016" lon="15.101645020768">
 <ele>917.24</ele>
 </trkpt>
 <trkpt lat="44.5747530274093" lon="15.1015740260482">
 <ele>918.2</ele>
 </trkpt>
 <trkpt lat="44.5747449807823" lon="15.1015320327133">
 <ele>917.72</ele>
 </trkpt>
 <trkpt lat="44.5747070107609" lon="15.1014140155166">
 <ele>918.2</ele>
 </trkpt>
 <trkpt lat="44.5746839605272" lon="15.101312007755">
 <ele>919.64</ele>
 </trkpt>
 <trkpt lat="44.5746419671923" lon="15.1011949963868">
 <ele>920.12</ele>
 </trkpt>
 <trkpt lat="44.5746149774641" lon="15.1011039689183">
 <ele>920.12</ele>
 </trkpt>
 <trkpt lat="44.5746039971709" lon="15.1010280288756">
 <ele>921.56</ele>
 </trkpt>
 <trkpt lat="44.5745770074427" lon="15.100955022499">
 <ele>923</ele>
 </trkpt>
 <trkpt lat="44.5745470002294" lon="15.1008420344442">
 <ele>923.48</ele>
 </trkpt>
 <trkpt lat="44.5745279733092" lon="15.1007439661771">
 <ele>923.96</ele>
 </trkpt>
 <trkpt lat="44.5745279733092" lon="15.1006650086492">
 <ele>924.93</ele>
 </trkpt>
 <trkpt lat="44.5745050068945" lon="15.1005700416863">
 <ele>924.93</ele>
 </trkpt>
 <trkpt lat="44.5745050068945" lon="15.1004960294813">
 <ele>924.45</ele>
 </trkpt>
 <trkpt lat="44.5745319966227" lon="15.1004309859127">
 <ele>925.41</ele>
 </trkpt>
 <trkpt lat="44.5745849702507" lon="15.1003859750926">
 <ele>926.85</ele>
 </trkpt>
 <trkpt lat="44.5746190007776" lon="15.1003380306065">
 <ele>928.29</ele>
 </trkpt>
 <trkpt lat="44.5746459905058" lon="15.1002699695528">
 <ele>929.73</ele>
 </trkpt>
 <trkpt lat="44.5746380276978" lon="15.1002040039748">
 <ele>931.65</ele>
 </trkpt>
 <trkpt lat="44.5746190007776" lon="15.1001449953765">
 <ele>933.58</ele>
 </trkpt>
 <trkpt lat="44.5746039971709" lon="15.100053967908">
 <ele>934.06</ele>
 </trkpt>
 <trkpt lat="44.5745930168778" lon="15.0999800395221">
 <ele>935.98</ele>
 </trkpt>
 <trkpt lat="44.5745810307562" lon="15.099890017882">
 <ele>936.94</ele>
 </trkpt>
 <trkpt lat="44.5745849702507" lon="15.0997890159488">
 <ele>936.94</ele>
 </trkpt>
 <trkpt lat="44.5745810307562" lon="15.0996860023588">
 <ele>937.9</ele>
 </trkpt>
 <trkpt lat="44.5745660271496" lon="15.099647026509">
 <ele>938.38</ele>
 </trkpt>
 <trkpt lat="44.5745350141078" lon="15.0995239801705">
 <ele>939.35</ele>
 </trkpt>
 <trkpt lat="44.5745119638741" lon="15.0994099862874">
 <ele>940.31</ele>
 </trkpt>
 <trkpt lat="44.5745119638741" lon="15.0993249937892">
 <ele>941.75</ele>
 </trkpt>
 <trkpt lat="44.574509030208" lon="15.099269002676">
 <ele>943.19</ele>
 </trkpt>
 <trkpt lat="44.5744930207729" lon="15.0991639774293">
 <ele>945.11</ele>
 </trkpt>
 <trkpt lat="44.574509030208" lon="15.0990909710526">
 <ele>946.07</ele>
 </trkpt>
 <trkpt lat="44.5745050068945" lon="15.0990329682827">
 <ele>946.56</ele>
 </trkpt>
 <trkpt lat="44.5745159871876" lon="15.098988963291">
 <ele>948</ele>
 </trkpt>
 <trkpt lat="44.5745240338147" lon="15.0988980196416">
 <ele>948.48</ele>
 </trkpt>
 <trkpt lat="44.5745279733092" lon="15.0988720357418">
 <ele>949.92</ele>
 </trkpt>
 <trkpt lat="44.5745319966227" lon="15.0988410227001">
 <ele>949.44</ele>
 </trkpt>
 <trkpt lat="44.5745200105011" lon="15.0987919885665">
 <ele>950.88</ele>
 </trkpt>
 <trkpt lat="44.5745319966227" lon="15.0987240113318">
 <ele>951.84</ele>
 </trkpt>
 <trkpt lat="44.5745279733092" lon="15.0986530166119">
 <ele>953.28</ele>
 </trkpt>
 <trkpt lat="44.5745429769158" lon="15.0985569600016">
 <ele>953.77</ele>
 </trkpt>
 <trkpt lat="44.5745390374213" lon="15.0984560418874">
 <ele>954.73</ele>
 </trkpt>
 <trkpt lat="44.5745470002294" lon="15.098417988047">
 <ele>956.17</ele>
 </trkpt>
 <trkpt lat="44.5745429769158" lon="15.0983909983188">
 <ele>957.61</ele>
 </trkpt>
 <trkpt lat="44.5745390374213" lon="15.0983200035989">
 <ele>957.13</ele>
 </trkpt>
 <trkpt lat="44.5745429769158" lon="15.0982490088791">
 <ele>959.53</ele>
 </trkpt>
 <trkpt lat="44.5745470002294" lon="15.0982220191509">
 <ele>960.49</ele>
 </trkpt>
 <trkpt lat="44.5745770074427" lon="15.0981609988958">
 <ele>961.46</ele>
 </trkpt>
 <trkpt lat="44.5745889935642" lon="15.0980979669839">
 <ele>962.9</ele>
 </trkpt>
 <trkpt lat="44.5745889935642" lon="15.098032001406">
 <ele>963.86</ele>
 </trkpt>
 <trkpt lat="44.5745770074427" lon="15.0979859847575">
 <ele>964.34</ele>
 </trkpt>
 <trkpt lat="44.5745770074427" lon="15.0979040097445">
 <ele>965.78</ele>
 </trkpt>
 <trkpt lat="44.5745849702507" lon="15.097825974226">
 <ele>966.26</ele>
 </trkpt>
 <trkpt lat="44.5746119599789" lon="15.0977630261332">
 <ele>967.7</ele>
 </trkpt>
 <trkpt lat="44.5746269635856" lon="15.0976999942213">
 <ele>969.63</ele>
 </trkpt>
 <trkpt lat="44.5746380276978" lon="15.0976709928364">
 <ele>970.59</ele>
 </trkpt>
 <trkpt lat="44.5746500138193" lon="15.0976310111582">
 <ele>972.03</ele>
 </trkpt>
 <trkpt lat="44.5746380276978" lon="15.0975839886814">
 <ele>972.51</ele>
 </trkpt>
 <trkpt lat="44.5746459905058" lon="15.0975539814681">
 <ele>974.43</ele>
 </trkpt>
 <trkpt lat="44.5746309868991" lon="15.0974539853632">
 <ele>973.95</ele>
 </trkpt>
 <trkpt lat="44.5746190007776" lon="15.0974249839783">
 <ele>973.47</ele>
 </trkpt>
 <trkpt lat="44.5746190007776" lon="15.0973300170153">
 <ele>974.43</ele>
 </trkpt>
 <trkpt lat="44.5746269635856" lon="15.0972730200738">
 <ele>975.39</ele>
 </trkpt>
 <trkpt lat="44.5746309868991" lon="15.0972460303456">
 <ele>975.88</ele>
 </trkpt>
 <trkpt lat="44.5746149774641" lon="15.0971649773419">
 <ele>977.32</ele>
 </trkpt>
 <trkpt lat="44.5746230240911" lon="15.0970730278641">
 <ele>978.28</ele>
 </trkpt>
 <trkpt lat="44.5746269635856" lon="15.0970099959522">
 <ele>980.2</ele>
 </trkpt>
 <trkpt lat="44.5746380276978" lon="15.0969619676471">
 <ele>980.68</ele>
 </trkpt>
 <trkpt lat="44.5746690407395" lon="15.0968949962407">
 <ele>982.12</ele>
 </trkpt>
 <trkpt lat="44.5747070107609" lon="15.0968049746007">
 <ele>983.09</ele>
 </trkpt>
 <trkpt lat="44.5747179910541" lon="15.0967280287296">
 <ele>985.01</ele>
 </trkpt>
 <trkpt lat="44.5747340004891" lon="15.0966629851609">
 <ele>986.45</ele>
 </trkpt>
 <trkpt lat="44.5747299771756" lon="15.0965929962695">
 <ele>987.41</ele>
 </trkpt>
 <trkpt lat="44.5747179910541" lon="15.0965280365199">
 <ele>988.37</ele>
 </trkpt>
 <trkpt lat="44.5747070107609" lon="15.096465004608">
 <ele>989.81</ele>
 </trkpt>
 <trkpt lat="44.5746960304677" lon="15.0964019726962">
 <ele>991.26</ele>
 </trkpt>
 <trkpt lat="44.5746839605272" lon="15.0963270384818">
 <ele>992.22</ele>
 </trkpt>
 <trkpt lat="44.5746609941125" lon="15.0962439738214">
 <ele>993.66</ele>
 </trkpt>
 <trkpt lat="44.5746500138193" lon="15.0961409602314">
 <ele>995.58</ele>
 </trkpt>
 <trkpt lat="44.5746350102127" lon="15.0960719771683">
 <ele>996.54</ele>
 </trkpt>
 <trkpt lat="44.5746309868991" lon="15.0960159860551">
 <ele>997.99</ele>
 </trkpt>
 <trkpt lat="44.5746230240911" lon="15.0959500204772">
 <ele>998.95</ele>
 </trkpt>
 <trkpt lat="44.5746080204844" lon="15.0958800315857">
 <ele>1000.39</ele>
 </trkpt>
 <trkpt lat="44.5746039971709" lon="15.0958289857954">
 <ele>1001.35</ele>
 </trkpt>
 <trkpt lat="44.5745960343629" lon="15.0957360304892">
 <ele>1003.27</ele>
 </trkpt>
 <trkpt lat="44.5745660271496" lon="15.0956299994141">
 <ele>1005.2</ele>
 </trkpt>
 <trkpt lat="44.5745240338147" lon="15.0955429952592">
 <ele>1006.64</ele>
 </trkpt>
 <trkpt lat="44.5744930207729" lon="15.0954470224679">
 <ele>1007.6</ele>
 </trkpt>
 <trkpt lat="44.5744709763676" lon="15.0953989941627">
 <ele>1009.04</ele>
 </trkpt>
 <trkpt lat="44.5744589902461" lon="15.0953359622508">
 <ele>1010.96</ele>
 </trkpt>
 <trkpt lat="44.5744439866394" lon="15.0952590163797">
 <ele>1013.37</ele>
 </trkpt>
 <trkpt lat="44.5744320005178" lon="15.0952480360866">
 <ele>1012.89</ele>
 </trkpt>
 <trkpt lat="44.5743790268898" lon="15.0951959844679">
 <ele>1014.33</ele>
 </trkpt>
 <trkpt lat="44.5743449963629" lon="15.0950900372118">
 <ele>1016.25</ele>
 </trkpt>
 <trkpt lat="44.5743180066347" lon="15.0950410030782">
 <ele>1018.17</ele>
 </trkpt>
 <trkpt lat="44.5743449963629" lon="15.09501401335">
 <ele>1019.62</ele>
 </trkpt>
 <trkpt lat="44.5743750035763" lon="15.0949860177934">
 <ele>1021.06</ele>
 </trkpt>
 <trkpt lat="44.5744320005178" lon="15.0949450302869">
 <ele>1022.5</ele>
 </trkpt>
 <trkpt lat="44.5744480099529" lon="15.0949010252953">
 <ele>1024.9</ele>
 </trkpt>
 <trkpt lat="44.5745200105011" lon="15.0948639772832">
 <ele>1026.34</ele>
 </trkpt>
 <trkpt lat="44.5745660271496" lon="15.094829024747">
 <ele>1027.79</ele>
 </trkpt>
 <trkpt lat="44.5745849702507" lon="15.0948030408472">
 <ele>1029.23</ele>
 </trkpt>
 <trkpt lat="44.5746350102127" lon="15.0947580300272">
 <ele>1031.15</ele>
 </trkpt>
 <trkpt lat="44.5746419671923" lon="15.0947280228138">
 <ele>1033.07</ele>
 </trkpt>
 <trkpt lat="44.5746770035475" lon="15.0947059784085">
 <ele>1035</ele>
 </trkpt>
 <trkpt lat="44.5747070107609" lon="15.0946960039437">
 <ele>1035</ele>
 </trkpt>
 <trkpt lat="44.5747599843889" lon="15.0947000272572">
 <ele>1035.96</ele>
 </trkpt>
 <trkpt lat="44.5748179871589" lon="15.0947089958936">
 <ele>1037.4</ele>
 </trkpt>
 <trkpt lat="44.5748329907656" lon="15.0947039667517">
 <ele>1039.32</ele>
 </trkpt>
 <trkpt lat="44.5748980343342" lon="15.0946860294789">
 <ele>1039.8</ele>
 </trkpt>
 <trkpt lat="44.5748940110207" lon="15.094681000337">
 <ele>1041.25</ele>
 </trkpt>
 <trkpt lat="44.5749510079622" lon="15.094688963145">
 <ele>1042.21</ele>
 </trkpt>
 <trkpt lat="44.575027031824" lon="15.0946870353073">
 <ele>1044.13</ele>
 </trkpt>
 <trkpt lat="44.5750579610467" lon="15.0946970097721">
 <ele>1044.13</ele>
 </trkpt>
 <trkpt lat="44.5751299615949" lon="15.0947239995003">
 <ele>1045.09</ele>
 </trkpt>
 <trkpt lat="44.5751720387489" lon="15.0947319623083">
 <ele>1047.01</ele>
 </trkpt>
 <trkpt lat="44.5752069912851" lon="15.0947329681367">
 <ele>1047.97</ele>
 </trkpt>
 <trkpt lat="44.575241021812" lon="15.0947359856218">
 <ele>1052.3</ele>
 </trkpt>
 <trkpt lat="44.5752530079335" lon="15.094615034759">
 <ele>1054.22</ele>
 </trkpt>
 <trkpt lat="44.5752599649131" lon="15.0945230014622">
 <ele>1055.18</ele>
 </trkpt>
 <trkpt lat="44.5752530079335" lon="15.0944359973073">
 <ele>1056.63</ele>
 </trkpt>
 <trkpt lat="44.57524898462" lon="15.0943980272859">
 <ele>1057.59</ele>
 </trkpt>
 <trkpt lat="44.5752639882267" lon="15.0943729653955">
 <ele>1058.07</ele>
 </trkpt>
 <trkpt lat="44.5752980187535" lon="15.0943469814956">
 <ele>1059.99</ele>
 </trkpt>
 <trkpt lat="44.5753290317953" lon="15.0942749809474">
 <ele>1060.47</ele>
 </trkpt>
 <trkpt lat="44.5753749646246" lon="15.0942640006542">
 <ele>1062.87</ele>
 </trkpt>
 <trkpt lat="44.5753939915448" lon="15.0942560378462">
 <ele>1064.32</ele>
 </trkpt>
 <trkpt lat="44.5754089951515" lon="15.0942530203611">
 <ele>1064.32</ele>
 </trkpt>
 <trkpt lat="44.5754700154066" lon="15.0942199956626">
 <ele>1064.8</ele>
 </trkpt>
 <trkpt lat="44.5754929818213" lon="15.0941930059344">
 <ele>1065.76</ele>
 </trkpt>
 <trkpt lat="44.5755649823695" lon="15.0941309798509">
 <ele>1065.76</ele>
 </trkpt>
 <trkpt lat="44.5756069757044" lon="15.0940980389714">
 <ele>1067.2</ele>
 </trkpt>
 <trkpt lat="44.5756679959595" lon="15.0940899923444">
 <ele>1068.64</ele>
 </trkpt>
 <trkpt lat="44.5757140126079" lon="15.0940859690309">
 <ele>1071.53</ele>
 </trkpt>
 <trkpt lat="44.5758170261979" lon="15.0940780062228">
 <ele>1072.97</ele>
 </trkpt>
 <trkpt lat="44.5758480392396" lon="15.0940589793026">
 <ele>1074.89</ele>
 </trkpt>
 <trkpt lat="44.5758440159261" lon="15.0939520262182">
 <ele>1076.81</ele>
 </trkpt>
 <trkpt lat="44.5758629590273" lon="15.0939200073481">
 <ele>1078.26</ele>
 </trkpt>
 <trkpt lat="44.5758590195328" lon="15.0938070192933">
 <ele>1080.18</ele>
 </trkpt>
 <trkpt lat="44.5758399926126" lon="15.0937750004232">
 <ele>1082.1</ele>
 </trkpt>
 <trkpt lat="44.5758669823408" lon="15.0935819651932">
 <ele>1083.06</ele>
 </trkpt>
 <trkpt lat="44.5759160164744" lon="15.0934859924018">
 <ele>1084.5</ele>
 </trkpt>
 <trkpt lat="44.5759349595755" lon="15.0933999940753">
 <ele>1086.91</ele>
 </trkpt>
 <trkpt lat="44.5759539864957" lon="15.093340985477">
 <ele>1087.87</ele>
 </trkpt>
 <trkpt lat="44.5759200397879" lon="15.093282982707">
 <ele>1089.31</ele>
 </trkpt>
 <trkpt lat="44.5759430062026" lon="15.093246018514">
 <ele>1090.75</ele>
 </trkpt>
 <trkpt lat="44.5760040264577" lon="15.0931290071458">
 <ele>1093.16</ele>
 </trkpt>
 <trkpt lat="44.5760880131274" lon="15.093097994104">
 <ele>1095.08</ele>
 </trkpt>
 <trkpt lat="44.5761379692703" lon="15.0931010115892">
 <ele>1096.52</ele>
 </trkpt>
 <trkpt lat="44.576152972877" lon="15.0930850021541">
 <ele>1097.96</ele>
 </trkpt>
 <trkpt lat="44.5761760231107" lon="15.0930300168693">
 <ele>1098.44</ele>
 </trkpt>
 <trkpt lat="44.5761679764837" lon="15.0929730199277">
 <ele>1100.37</ele>
 </trkpt>
 <trkpt lat="44.576145010069" lon="15.0928840041161">
 <ele>1101.33</ele>
 </trkpt>
 <trkpt lat="44.5761109795421" lon="15.0927809905261">
 <ele>1103.25</ele>
 </trkpt>
 <trkpt lat="44.5760989934206" lon="15.0927690044045">
 <ele>1103.73</ele>
 </trkpt>
 <trkpt lat="44.5760770328343" lon="15.0927089899778">
 <ele>1105.65</ele>
 </trkpt>
 <trkpt lat="44.5761030167341" lon="15.0926570221782">
 <ele>1105.65</ele>
 </trkpt>
 <trkpt lat="44.576145010069" lon="15.0926270149648">
 <ele>1105.17</ele>
 </trkpt>
 <trkpt lat="44.5761799626052" lon="15.0926069822162">
 <ele>1105.65</ele>
 </trkpt>
 <trkpt lat="44.5762020070106" lon="15.0925889611244">
 <ele>1106.13</ele>
 </trkpt>
 <trkpt lat="44.5762180164456" lon="15.0925749633461">
 <ele>1106.61</ele>
 </trkpt>
 <trkpt lat="44.5763849839568" lon="15.0925140269101">
 <ele>1106.61</ele>
 </trkpt>
 <trkpt lat="44.5764429867268" lon="15.0924879591912">
 <ele>1107.58</ele>
 </trkpt>
 <trkpt lat="44.5764849800617" lon="15.0924659986049">
 <ele>1108.54</ele>
 </trkpt>
 <trkpt lat="44.5765419770032" lon="15.0924400147051">
 <ele>1108.54</ele>
 </trkpt>
 <trkpt lat="44.5766530372202" lon="15.0924380030483">
 <ele>1109.5</ele>
 </trkpt>
 <trkpt lat="44.5766940247267" lon="15.0924909766763">
 <ele>1109.02</ele>
 </trkpt>
 <trkpt lat="44.5767330005765" lon="15.0925219897181">
 <ele>1109.5</ele>
 </trkpt>
 <trkpt lat="44.5767670311034" lon="15.0925489794463">
 <ele>1109.5</ele>
 </trkpt>
 <trkpt lat="44.5767859742045" lon="15.09257202968">
 <ele>1111.42</ele>
 </trkpt>
 <trkpt lat="44.5768550410867" lon="15.0926349777728">
 <ele>1113.34</ele>
 </trkpt>
 <trkpt lat="44.5769999641925" lon="15.0927000213414">
 <ele>1113.82</ele>
 </trkpt>
 <trkpt lat="44.5770800113678" lon="15.0927679985762">
 <ele>1114.31</ele>
 </trkpt>
 <trkpt lat="44.5771140418947" lon="15.0927779730409">
 <ele>1115.75</ele>
 </trkpt>
 <trkpt lat="44.5771869644523" lon="15.0928170327097">
 <ele>1115.75</ele>
 </trkpt>
 <trkpt lat="44.5772290416062" lon="15.0928120035678">
 <ele>1115.27</ele>
 </trkpt>
 <trkpt lat="44.5773280318826" lon="15.0927909649909">
 <ele>1116.23</ele>
 </trkpt>
 <trkpt lat="44.5774380024523" lon="15.0928089860827">
 <ele>1116.71</ele>
 </trkpt>
 <trkpt lat="44.5775450393558" lon="15.0928690005094">
 <ele>1118.63</ele>
 </trkpt>
 <trkpt lat="44.5776140224189" lon="15.0928700063378">
 <ele>1120.55</ele>
 </trkpt>
 <trkpt lat="44.5776749588549" lon="15.0928829982877">
 <ele>1123.44</ele>
 </trkpt>
 <trkpt lat="44.5777170360088" lon="15.0929199624807">
 <ele>1124.88</ele>
 </trkpt>
 <trkpt lat="44.577728016302" lon="15.0929679907858">
 <ele>1131.61</ele>
 </trkpt>
 <trkpt lat="44.5777400024235" lon="15.092978971079">
 <ele>1132.09</ele>
 </trkpt>
 <trkpt lat="44.5777890365571" lon="15.0930519774556">
 <ele>1134.01</ele>
 </trkpt>
 <trkpt lat="44.5778619591147" lon="15.0931200385094">
 <ele>1135.45</ele>
 </trkpt>
 <trkpt lat="44.5779570098966" lon="15.0931870099157">
 <ele>1144.11</ele>
 </trkpt>
 <trkpt lat="44.5779910404235" lon="15.0932539813221">
 <ele>1145.07</ele>
 </trkpt>
 <trkpt lat="44.5780450198799" lon="15.0933399796486">
 <ele>1144.59</ele>
 </trkpt>
 <trkpt lat="44.5782050304115" lon="15.093496972695">
 <ele>1146.51</ele>
 </trkpt>
 <trkpt lat="44.5782050304115" lon="15.0935740023851">
 <ele>1148.43</ele>
 </trkpt>
 <trkpt lat="44.5782549865544" lon="15.0935959629714">
 <ele>1151.32</ele>
 </trkpt>
 <trkpt lat="44.5782969798893" lon="15.093637034297">
 <ele>1152.76</ele>
 </trkpt>
 <trkpt lat="44.5783389732242" lon="15.0936930254102">
 <ele>1154.68</ele>
 </trkpt>
 <trkpt lat="44.5783809665591" lon="15.0937350187451">
 <ele>1156.12</ele>
 </trkpt>
 <trkpt lat="44.5784030109644" lon="15.0937500223517">
 <ele>1159.49</ele>
 </trkpt>
 <trkpt lat="44.5784379635006" lon="15.0938190054148">
 <ele>1176.79</ele>
 </trkpt>
 <trkpt lat="44.5784450042993" lon="15.0938429776579">
 <ele>1177.75</ele>
 </trkpt>
 <trkpt lat="44.5784949604422" lon="15.0939350109547">
 <ele>1179.19</ele>
 </trkpt>
 <trkpt lat="44.578586993739" lon="15.094059985131">
 <ele>1181.12</ele>
 </trkpt>
 <trkpt lat="44.5786549709737" lon="15.0941370148212">
 <ele>1182.08</ele>
 </trkpt>
 <trkpt lat="44.5788149815053" lon="15.0943779945374">
 <ele>1185.44</ele>
 </trkpt>
 <trkpt lat="44.5788540411741" lon="15.0945769809186">
 <ele>1185.92</ele>
 </trkpt>
 <trkpt lat="44.5788800250739" lon="15.0946479756385">
 <ele>1187.85</ele>
 </trkpt>
 <trkpt lat="44.5789070148021" lon="15.0947820022702">
 <ele>1189.77</ele>
 </trkpt>
 <trkpt lat="44.5789260417223" lon="15.0948219839484">
 <ele>1191.69</ele>
 </trkpt>
 <trkpt lat="44.5789380278438" lon="15.0948570203036">
 <ele>1190.73</ele>
 </trkpt>
 <trkpt lat="44.5789260417223" lon="15.0948450341821">
 <ele>1192.65</ele>
 </trkpt>
 <trkpt lat="44.5789299812168" lon="15.0948720239103">
 <ele>1194.09</ele>
 </trkpt>
 <trkpt lat="44.5789220184088" lon="15.0949170347303">
 <ele>1196.02</ele>
 </trkpt>
 <trkpt lat="44.5789260417223" lon="15.0949519872665">
 <ele>1197.94</ele>
 </trkpt>
 <trkpt lat="44.5788989681751" lon="15.0950359739363">
 <ele>1199.86</ele>
 </trkpt>
 <trkpt lat="44.5788839645684" lon="15.0950499717146">
 <ele>1201.79</ele>
 </trkpt>
 <trkpt lat="44.5789070148021" lon="15.0950929708779">
 <ele>1204.19</ele>
 </trkpt>
 <trkpt lat="44.5789179950953" lon="15.095133036375">
 <ele>1206.11</ele>
 </trkpt>
 <trkpt lat="44.5788879878819" lon="15.0951440166682">
 <ele>1208.51</ele>
 </trkpt>
 <trkpt lat="44.5788760017604" lon="15.0951689947397">
 <ele>1211.88</ele>
 </trkpt>
 <trkpt lat="44.5788689609617" lon="15.0951969902962">
 <ele>1215.24</ele>
 </trkpt>
 <trkpt lat="44.5788760017604" lon="15.0952190347016">
 <ele>1216.69</ele>
 </trkpt>
 <trkpt lat="44.5788989681751" lon="15.0952920410782">
 <ele>1217.65</ele>
 </trkpt>
 <trkpt lat="44.5789340045303" lon="15.0953249819577">
 <ele>1217.65</ele>
 </trkpt>
 <trkpt lat="44.5789719745517" lon="15.0953570008278">
 <ele>1216.69</ele>
 </trkpt>
 <trkpt lat="44.5789530314505" lon="15.0953659694642">
 <ele>1216.69</ele>
 </trkpt>
 <trkpt lat="44.5789599884301" lon="15.0953829847276">
 <ele>1217.17</ele>
 </trkpt>
 <trkpt lat="44.5790030714124" lon="15.0955476891249">
 <ele>1258.207</ele>
 </trkpt>
 <trkpt lat="44.5790929254144" lon="15.0955728348345">
 <ele>1258.301</ele>
 </trkpt>
 <trkpt lat="44.5791917480528" lon="15.0956106372178">
 <ele>1258.379</ele>
 </trkpt>
 <trkpt lat="44.5793264452368" lon="15.0956484396011">
 <ele>1257.773</ele>
 </trkpt>
 <trkpt lat="44.5793893095106" lon="15.0956736691296">
 <ele>1256.996</ele>
 </trkpt>
 <trkpt lat="44.5794612262398" lon="15.0957114715129">
 <ele>1255.895</ele>
 </trkpt>
 <trkpt lat="44.5794612262398" lon="15.0957240443677">
 <ele>1255.703</ele>
 </trkpt>
 <trkpt lat="44.5794791635126" lon="15.0958374515176">
 <ele>1253.785</ele>
 </trkpt>
 <trkpt lat="44.5794522576034" lon="15.0959129724652">
 <ele>1252.922</ele>
 </trkpt>
 <trkpt lat="44.5793893095106" lon="15.0960389524698">
 <ele>1251.914</ele>
 </trkpt>
 </trkseg>
 </trk>

</gpx>